ALSAT 1B                
1 41785U 16059C   19088.45210935  .00000009  00000-0  11090-4 0  9995
2 41785  98.0746 150.1755 0029737 278.0438  81.7391 14.63313461133676
PATHFINDER 1            
1 41787U 16059E   19088.53870689  .00000044  00000-0  17591-4 0  9995
2 41787  98.0765 150.8521 0029241 276.2662  83.5211 14.63656531133710
SCATSAT 1               
1 41790U 16059H   19088.61830095 -.00000002  00000-0  10765-4 0  9996
2 41790  98.2201 135.6079 0017056 297.5413  62.4049 14.50893743132573
WORLDVIEW-4 (WV-4)      
1 41848U 16067A   19088.47146485 -.00002174  00000-0 -24335-3 0  9996
2 41848  97.8847 168.2224 0009453 136.7552 223.4330 14.85857779128767
GOKTURK 1A              
1 41875U 16073A   19088.48130118  .00000024  00000-0  13799-4 0  9993
2 41875  98.1430 344.1929 0001550  68.6936 291.4428 14.62764525123360
RESOURCESAT-2A          
1 41877U 16074A   19088.51728343  .00000008  00000-0  23248-4 0  9995
2 41877  98.6390 163.1057 0001038 110.7003 249.4288 14.21661255119686
CARTOSAT-2D             
1 41948U 17008A   19086.45253784  .00003932  00000-0  18965-3 0  9993
2 41948  97.4051 148.4659 0008364 115.6611 244.4050 15.19247419116946
SENTINEL-2B             
1 42063U 17013A   19088.49424524  .00000010  00000-0  20384-4 0  9999
2 42063  98.5734 164.1265 0001433  86.0192 274.1153 14.30813479107602
ZHUHAI-1 02 (CAS 4B)    
1 42759U 17034B   19088.60500764  .00000183  00000-0  24734-4 0  9992
2 42759  43.0185 316.1099 0009584  98.8919 302.2830 15.09519503 98585
NUSAT-3 (MILANESAT)     
1 42760U 17034C   19087.99628608  .00000194  00000-0  25153-4 0  9991
2 42760  43.0181 319.8177 0007918 112.6080  28.5153 15.09929357 98491
ZHUHAI-1 01 (CAS 4A)    
1 42761U 17034D   19088.06313932  .00000187  00000-0  24992-4 0  9994
2 42761  43.0199 318.6704 0009937  96.1861  54.8441 15.09596031 98491
CARTOSAT-2E             
1 42767U 17036C   19088.57090450  .00000391  00000-0  21780-4 0  9994
2 42767  97.4826 148.1975 0009194 143.5604 216.6258 15.19234122 97832
FORMOSAT-5              
1 42920U 17049A   19088.50950859 -.00000032  00000-0  32774-5 0  9999
2 42920  98.3333 167.5684 0009109 255.3936 104.6250 14.50828015 84359
SENTINEL-5P             
1 42969U 17064A   19088.43734105 -.00000010  00000-0  15859-4 0  9995
2 42969  98.7295  28.9893 0001043  85.9807 274.1488 14.19554609 75477
SKYSAT-C11              
1 42987U 17068A   19088.53740885  .00000553  00000-0  27535-4 0  9997
2 42987  97.4215 203.2408 0010514 135.5276 224.6806 15.21619381 78054
SKYSAT-C10              
1 42988U 17068B   19088.48583282  .00000715  00000-0  34702-4 0  9992
2 42988  97.4206 203.0841 0005295 149.8213 340.6644 15.21641431 78042
SKYSAT-C9               
1 42989U 17068C   19088.60578646  .00000692  00000-0  33686-4 0  9999
2 42989  97.4227 203.6454 0001807  83.5363  42.1249 15.21614351 78087
SKYSAT-C8               
1 42990U 17068D   19088.52986890  .00000702  00000-0  34039-4 0  9991
2 42990  97.4225 203.4591 0004395 173.9741 318.0635 15.21736196 78060
SKYSAT-C7               
1 42991U 17068E   19088.51784422  .00000710  00000-0  34490-4 0  9998
2 42991  97.4226 203.4654 0005144 191.9040 299.4712 15.21649815 78066
SKYSAT-C6               
1 42992U 17068F   19088.50837904  .00000777  00000-0  37404-4 0  9993
2 42992  97.4227 203.6465 0009920 262.2472 228.3348 15.21679135 78072
CARTOSAT-2F             
1 43111U 18004A   19088.50022794  .00000607  00000-0  32030-4 0  9993
2 43111  97.4428 151.2643 0004911 150.7635 317.2144 15.19247959 67007
MICROSAT-TD             
1 43128U 18004T   19088.40335339  .00020285  00000-0  16401-3 0  9999
2 43128  96.8177 146.7588 0006403  90.3190 269.8808 15.70823216 69249
NUSAT-4 (ADA)           
1 43195U 18015D   19088.46508278  .00001073  00000-0  47691-4 0  9995
2 43195  97.3819 217.2140 0016570 222.0403 223.6876 15.23571298 63961
NUSAT-5 (MARYAM)        
1 43204U 18015K   19088.50727258  .00001073  00000-0  47425-4 0  9997
2 43204  97.3825 217.3005 0016101 225.4802 189.9015 15.23766869 63576
SENTINEL-3B             
1 43437U 18039A   19088.58631162 -.00000018  00000-0  10601-4 0  9992
2 43437  98.6262 156.6699 0001623  86.5312 273.6054 14.26735843 48164
AEOLUS                  
1 43600U 18066A   19087.80969731 -.00000137  00000-0  00000+0 0  9993
2 43600  96.7223  95.8361 0004820 139.6056 220.6817 15.86751649 34544
ICESAT-2                
1 43613U 18070A   19088.58118172  .00000126  00000-0  43344-5 0  9994
2 43613  91.9976 301.3030 0002323  89.3547 270.7969 15.28269572 29790
HYSIS                   
1 43719U 18096A   19088.47400338  .00000033  00000-0  11598-4 0  9997
2 43719  97.9551 157.1185 0009221 223.7826 136.2655 14.78619557 17766
KAZSTSAT                
1 43783U 18099AB  19088.20728072  .00000330  00000-0  36670-4 0  9998
2 43783  97.7655 161.1127 0007828 221.4304 138.6323 14.93590174 17227
SAUDISAT 5A             
1 43831U 18102A   19088.52751207 -.00000348  00000-0 -18521-4 0  9994
2 43831  97.6095 164.9821 0012868 238.0158 246.7724 15.07842860 16932
SAUDISAT 5B             
1 43833U 18102C   19088.49512193  .00000727  00000-0  50948-4 0  9999
2 43833  97.6101 165.0214 0014011 248.5471 237.4848 15.08289992 16921
